start=new Date('2022-04-15T00:00:00.000Z').valueOf();
sats=[{"EPOCH":"2022-04-14T22:00:00.999936","OBJECT_TYPE":"PAYLOAD","CLASSIFICATION_TYPE":"U","SEMIMAJOR_AXIS":"6917.889","APOAPSIS":"541.380","MEAN_ELEMENT_THEORY":"SGP4","ELEMENT_SET_NO":"999","ECCENTRICITY":"0.00023510","TIME_SYSTEM":"UTC","PERIOD":"95.438","EPHEMERIS_TYPE":"0","DECAY_DATE":null,"PERIAPSIS":"538.128","REV_AT_EPOCH":"360","COUNTRY_CODE":"US","BSTAR":"0.00029838000000","TLE_LINE1":"1 50176U 21125W   22104.91667824  .00004463  00000-0  29838-3 0  9992","MEAN_MOTION_DOT":"0.00004463","REF_FRAME":"TEME","CENTER_NAME":"EARTH","GP_ID":"201258116","RCS_SIZE":"LARGE","LAUNCH_DATE":"2021-12-18","FILE":"3401977","ARG_OF_PERICENTER":"28.7764","TLE_LINE2":"2 50176  53.2193 165.1693 0002351  28.7764 257.2705 15.08837172  3609","SITE":"AFWTR","OBJECT_NAME":"STARLINK-3293","RA_OF_ASC_NODE":"165.1693","MEAN_MOTION":"15.08837172","OBJECT_ID":"2021-125W","MEAN_ANOMALY":"257.2705","INCLINATION":"53.2193","NORAD_CAT_ID":"50176","MEAN_MOTION_DDOT":"0.0000000000000"},{"EPOCH":"2022-04-14T22:00:00.999936","OBJECT_TYPE":"PAYLOAD","MEAN_ELEMENT_THEORY":"SGP4","APOAPSIS":"541.271","SEMIMAJOR_AXIS":"6917.928","CLASSIFICATION_TYPE":"U","EPHEMERIS_TYPE":"0","TIME_SYSTEM":"UTC","PERIOD":"95.439","ECCENTRICITY":"0.00021370","ELEMENT_SET_NO":"999","BSTAR":"-0.00027263000000","COUNTRY_CODE":"US","REV_AT_EPOCH":"360","TLE_LINE1":"1 50177U 21125X   22104.91667824 -.00004623  00000-0 -27263-3 0  9993","PERIAPSIS":"538.314","DECAY_DATE":null,"RCS_SIZE":"LARGE","CENTER_NAME":"EARTH","GP_ID":"201258366","REF_FRAME":"TEME","MEAN_MOTION_DOT":"-0.00004623","TLE_LINE2":"2 50177  53.2161 165.1776 0002137  33.4389 192.6509 15.08824499  3607","ARG_OF_PERICENTER":"33.4389","SITE":"AFWTR","FILE":"3401977","LAUNCH_DATE":"2021-12-18","OBJECT_ID":"2021-125X","MEAN_MOTION":"15.08824499","OBJECT_NAME":"STARLINK-3282","RA_OF_ASC_NODE":"165.1776","MEAN_MOTION_DDOT":"0.0000000000000","INCLINATION":"53.2161","NORAD_CAT_ID":"50177","MEAN_ANOMALY":"192.6509"},{"MEAN_MOTION_DOT":"0.00004621","REF_FRAME":"TEME","GP_ID":"201233887","CENTER_NAME":"EARTH","RCS_SIZE":"LARGE","LAUNCH_DATE":"2021-12-18","FILE":"3401859","TLE_LINE2":"2 50178  53.2147 165.2470 0001982  42.0843 318.0301 15.08853650 21012","ARG_OF_PERICENTER":"42.0843","SITE":"AFWTR","MEAN_MOTION":"15.08853650","OBJECT_NAME":"STARLINK-3284","RA_OF_ASC_NODE":"165.2470","OBJECT_ID":"2021-125Y","MEAN_ANOMALY":"318.0301","INCLINATION":"53.2147","NORAD_CAT_ID":"50178","MEAN_MOTION_DDOT":"0.0000000000000","EPOCH":"2022-04-14T21:37:14.094912","OBJECT_TYPE":"PAYLOAD","CLASSIFICATION_TYPE":"U","SEMIMAJOR_AXIS":"6917.839","MEAN_ELEMENT_THEORY":"SGP4","APOAPSIS":"541.075","ECCENTRICITY":"0.00019820","ELEMENT_SET_NO":"999","TIME_SYSTEM":"UTC","PERIOD":"95.437","EPHEMERIS_TYPE":"0","DECAY_DATE":null,"PERIAPSIS":"538.333","BSTAR":"0.00030810000000","COUNTRY_CODE":"US","REV_AT_EPOCH":"2101","TLE_LINE1":"1 50178U 21125Y   22104.90085758  .00004621  00000-0  30810-3 0  9991"},{"ECCENTRICITY":"0.00020610","ELEMENT_SET_NO":"999","EPHEMERIS_TYPE":"0","TIME_SYSTEM":"UTC","PERIOD":"95.438","PERIAPSIS":"538.361","DECAY_DATE":null,"REV_AT_EPOCH":"360","COUNTRY_CODE":"US","BSTAR":"0.00029693000000","TLE_LINE1":"1 50179U 21125Z   22104.91667824  .00004439  00000-0  29693-3 0  9997","EPOCH":"2022-04-14T22:00:00.999936","OBJECT_TYPE":"PAYLOAD","CLASSIFICATION_TYPE":"U","MEAN_ELEMENT_THEORY":"SGP4","APOAPSIS":"541.212","SEMIMAJOR_AXIS":"6917.921","RA_OF_ASC_NODE":"165.1680","OBJECT_NAME":"STARLINK-3283","MEAN_MOTION":"15.08826579","OBJECT_ID":"2021-125Z","MEAN_ANOMALY":"238.1043","MEAN_MOTION_DDOT":"0.0000000000000","INCLINATION":"53.2185","NORAD_CAT_ID":"50179","REF_FRAME":"TEME","MEAN_MOTION_DOT":"0.00004439","RCS_SIZE":"LARGE","GP_ID":"201259368","CENTER_NAME":"EARTH","LAUNCH_DATE":"2021-12-18","ARG_OF_PERICENTER":"27.9933","TLE_LINE2":"2 50179  53.2185 165.1680 0002061  27.9933 238.1043 15.08826579  3608","SITE":"AFWTR","FILE":"3401977"},{"MEAN_MOTION":"15.08830982","OBJECT_NAME":"STARLINK-3265","RA_OF_ASC_NODE":"165.1660","OBJECT_ID":"2021-125AA","MEAN_ANOMALY":"318.1561","MEAN_MOTION_DDOT":"0.0000000000000","INCLINATION":"53.2190","NORAD_CAT_ID":"50180","REF_FRAME":"TEME","MEAN_MOTION_DOT":"-0.00000070","RCS_SIZE":"LARGE","GP_ID":"201233882","CENTER_NAME":"EARTH","LAUNCH_DATE":"2021-12-18","ARG_OF_PERICENTER":"27.9164","TLE_LINE2":"2 50180  53.2190 165.1660 0002326  27.9164 318.1561 15.08830982 18427","SITE":"AFWTR","FILE":"3401859","ELEMENT_SET_NO":"999","ECCENTRICITY":"0.00023260","EPHEMERIS_TYPE":"0","TIME_SYSTEM":"UTC","PERIOD":"95.438","PERIAPSIS":"538.164","DECAY_DATE":null,"COUNTRY_CODE":"US","BSTAR":"0.00001370200000","REV_AT_EPOCH":"1842","TLE_LINE1":"1 50180U 21125AA  22104.91667824 -.00000070  00000-0  13702-4 0  9992","EPOCH":"2022-04-14T22:00:00.999936","OBJECT_TYPE":"PAYLOAD","CLASSIFICATION_TYPE":"U","APOAPSIS":"541.382","MEAN_ELEMENT_THEORY":"SGP4","SEMIMAJOR_AXIS":"6917.908"},{"FILE":"3401977","SITE":"AFWTR","TLE_LINE2":"2 50181  53.2170 165.1615 0002102  33.6695 352.4162 15.08826453  3612","ARG_OF_PERICENTER":"33.6695","LAUNCH_DATE":"2021-12-18","GP_ID":"201257872","CENTER_NAME":"EARTH","RCS_SIZE":"LARGE","MEAN_MOTION_DOT":"0.00005773","REF_FRAME":"TEME","NORAD_CAT_ID":"50181","INCLINATION":"53.2170","MEAN_MOTION_DDOT":"0.0000000000000","MEAN_ANOMALY":"352.4162","OBJECT_ID":"2021-125AB","MEAN_MOTION":"15.08826453","OBJECT_NAME":"STARLINK-3285","RA_OF_ASC_NODE":"165.1615","SEMIMAJOR_AXIS":"6917.922","MEAN_ELEMENT_THEORY":"SGP4","APOAPSIS":"541.241","CLASSIFICATION_TYPE":"U","OBJECT_TYPE":"PAYLOAD","EPOCH":"2022-04-14T22:00:00.999936","TLE_LINE1":"1 50181U 21125AB  22104.91667824  .00005773  00000-0  38063-3 0  9993","COUNTRY_CODE":"US","REV_AT_EPOCH":"361","BSTAR":"0.00038063000000","DECAY_DATE":null,"PERIAPSIS":"538.333","PERIOD":"95.438","TIME_SYSTEM":"UTC","EPHEMERIS_TYPE":"0","ELEMENT_SET_NO":"999","ECCENTRICITY":"0.00021020"},{"FILE":"3401977","SITE":"AFWTR","ARG_OF_PERICENTER":"40.0908","TLE_LINE2":"2 50182  53.2167 165.2154 0002394  40.0908 320.0261 15.08859898 21542","LAUNCH_DATE":"2021-12-18","CENTER_NAME":"EARTH","GP_ID":"201259118","RCS_SIZE":"LARGE","MEAN_MOTION_DOT":"0.00006740","REF_FRAME":"TEME","NORAD_CAT_ID":"50182","INCLINATION":"53.2167","MEAN_MOTION_DDOT":"0.0000000000000","MEAN_ANOMALY":"320.0261","OBJECT_ID":"2021-125AC","RA_OF_ASC_NODE":"165.2154","OBJECT_NAME":"STARLINK-3277","MEAN_MOTION":"15.08859898","SEMIMAJOR_AXIS":"6917.820","MEAN_ELEMENT_THEORY":"SGP4","APOAPSIS":"541.341","CLASSIFICATION_TYPE":"U","OBJECT_TYPE":"PAYLOAD","EPOCH":"2022-04-14T21:42:32.596416","TLE_LINE1":"1 50182U 21125AC  22104.90454394  .00006740  00000-0  44090-3 0  9991","REV_AT_EPOCH":"2154","COUNTRY_CODE":"US","BSTAR":"0.00044090000000","DECAY_DATE":null,"PERIAPSIS":"538.028","PERIOD":"95.436","TIME_SYSTEM":"UTC","EPHEMERIS_TYPE":"0","ECCENTRICITY":"0.00023940","ELEMENT_SET_NO":"999"},{"GP_ID":"201234694","CENTER_NAME":"EARTH","RCS_SIZE":"LARGE","MEAN_MOTION_DOT":"-0.00004453","REF_FRAME":"TEME","FILE":"3401865","TLE_LINE2":"2 50183  53.2180 165.1637 0002315  29.0427  17.0282 15.08830545 18426","ARG_OF_PERICENTER":"29.0427","SITE":"AFWTR","LAUNCH_DATE":"2021-12-18","OBJECT_ID":"2021-125AD","OBJECT_NAME":"STARLINK-3281","MEAN_MOTION":"15.08830545","RA_OF_ASC_NODE":"165.1637","INCLINATION":"53.2180","NORAD_CAT_ID":"50183","MEAN_MOTION_DDOT":"0.0000000000000","MEAN_ANOMALY":"17.0282","EPOCH":"2022-04-14T22:00:00.999936","OBJECT_TYPE":"PAYLOAD","SEMIMAJOR_AXIS":"6917.909","MEAN_ELEMENT_THEORY":"SGP4","APOAPSIS":"541.376","CLASSIFICATION_TYPE":"U","TIME_SYSTEM":"UTC","PERIOD":"95.438","EPHEMERIS_TYPE":"0","ECCENTRICITY":"0.00023150","ELEMENT_SET_NO":"999","BSTAR":"-0.00026192000000","COUNTRY_CODE":"US","REV_AT_EPOCH":"1842","TLE_LINE1":"1 50183U 21125AD  22104.91667824 -.00004453  00000-0 -26192-3 0  9991","DECAY_DATE":null,"PERIAPSIS":"538.173"},{"ECCENTRICITY":"0.00022900","ELEMENT_SET_NO":"999","EPHEMERIS_TYPE":"0","TIME_SYSTEM":"UTC","PERIOD":"95.438","PERIAPSIS":"538.189","DECAY_DATE":null,"COUNTRY_CODE":"US","REV_AT_EPOCH":"361","BSTAR":"0.00000769630000","TLE_LINE1":"1 50185U 21125AF  22104.91667824 -.00000166  00000-0  76963-5 0  9992","EPOCH":"2022-04-14T22:00:00.999936","OBJECT_TYPE":"PAYLOAD","CLASSIFICATION_TYPE":"U","APOAPSIS":"541.357","MEAN_ELEMENT_THEORY":"SGP4","SEMIMAJOR_AXIS":"6917.908","MEAN_MOTION":"15.08830990","OBJECT_NAME":"STARLINK-3279","RA_OF_ASC_NODE":"165.1653","OBJECT_ID":"2021-125AF","MEAN_ANOMALY":"332.4887","MEAN_MOTION_DDOT":"0.0000000000000","INCLINATION":"53.2188","NORAD_CAT_ID":"50185","REF_FRAME":"TEME","MEAN_MOTION_DOT":"-0.00000166","RCS_SIZE":"LARGE","GP_ID":"201258117","CENTER_NAME":"EARTH","LAUNCH_DATE":"2021-12-18","ARG_OF_PERICENTER":"33.5890","TLE_LINE2":"2 50185  53.2188 165.1653 0002290  33.5890 332.4887 15.08830990  3614","SITE":"AFWTR","FILE":"3401977"},{"MEAN_ANOMALY":"322.1870","MEAN_MOTION_DDOT":"0.0000000000000","INCLINATION":"53.2161","NORAD_CAT_ID":"50186","RA_OF_ASC_NODE":"175.1049","OBJECT_NAME":"STARLINK-3274","MEAN_MOTION":"15.08859550","OBJECT_ID":"2021-125AG","LAUNCH_DATE":"2021-12-18","ARG_OF_PERICENTER":"37.9290","TLE_LINE2":"2 50186  53.2161 175.1049 0002383  37.9290 322.1870 15.08859550 21364","SITE":"AFWTR","FILE":"3401977","REF_FRAME":"TEME","MEAN_MOTION_DOT":"0.00007368","RCS_SIZE":"LARGE","GP_ID":"201258367","CENTER_NAME":"EARTH","PERIAPSIS":"538.037","DECAY_DATE":null,"REV_AT_EPOCH":"2136","COUNTRY_CODE":"US","BSTAR":"0.00048029000000","TLE_LINE1":"1 50186U 21125AG  22104.92938087  .00007368  00000-0  48029-3 0  9996","ELEMENT_SET_NO":"999","ECCENTRICITY":"0.00023830","EPHEMERIS_TYPE":"0","TIME_SYSTEM":"UTC","PERIOD":"95.436","CLASSIFICATION_TYPE":"U","APOAPSIS":"541.334","MEAN_ELEMENT_THEORY":"SGP4","SEMIMAJOR_AXIS":"6917.821","EPOCH":"2022-04-14T22:18:18.507168","OBJECT_TYPE":"PAYLOAD"}];
